{"id":"399","name":"Earth ","epoch":"2000-Jan-01 12:00:00.0000","physicalData":{"meanRadius":6371010,"mass":5.97219e+24,"siderealRotRate":0.004178074132240403,"gravParameter":398600435.436,"obliquity":23.4392911},"elementTable":{"eccentricity":0.01711862906746885,"periapsis":147102954.6843549,"inclination":0.000418108606546181,"longitudeOfAscendingNode":135.0807182572469,"argumentOfPeriapsis":326.7282188569271,"timeOfPeriapsis":2451546.403877782,"meanMotion":0.000418108606546181,"meanAnomaly":358.6172562416435,"trueAnomaly":358.5688856532555,"semiMajorAxis":358.6172562416435,"apoapsis":152227074.4213704,"siderealOrbitPeriod":31579397.32235206},"vectorTable":{"position":[-26499033677.4305,144697296792.54932,-611149.4259536266],"velocity":[-29794.26007043741,-5469.2949397706025,0.1817836785027449],"range":147103726959.1841,"rangeRate":-12.73313936463491}}
